[
    {
        "Altitude(m)": 622200.1513591291,
        "Argument of Periapsis(deg)": 0.0,
        "Eccentricity": 0.0,
        "Inclination(deg)": 60.0,
        "Latitude(deg)": -52.16266010403976,
        "Longitude(deg)": -82.6392392478052,
        "Mean Anomaly(deg)": 294.54549999999995,
        "RAAN(deg)": 65.0,
        "Satellite Name": "Test1 304",
        "Satellite Number": 304,
        "Semi-Major Axis(m)": 6980739.136638005,
        "Time(s)": 0
    },
    {
        "Altitude(m)": 622058.319211985,
        "Argument of Periapsis(deg)": 0.00010418945913296404,
        "Eccentricity": 0.0,
        "Inclination(deg)": 60.0,
        "Latitude(deg)": -51.79940966949252,
        "Longitude(deg)": -81.87117940507075,
        "Mean Anomaly(deg)": -64.83439385453812,
        "RAAN(deg)": 64.99957995086025,
        "Satellite Name": "Test1 304",
        "Satellite Number": 304,
        "Semi-Major Axis(m)": 6980739.136638005,
        "Time(s)": 10
    }
]